{"type": "FeatureCollection", "features": [ {"type": "Feature", "properties": {"norad_id": 41836, "name": "HIMAWARI-9", "group": "weather", "lat": 0.04282103671463056, "lon": 60.48932509440477, "alt_km": 35791.197021667416, "timestamp": "2025-12-02T13:52:16.919143+00:00", "meta": {"OBJECT_NAME": "HIMAWARI-9", "OBJECT_ID": "2016-064A", "EPOCH": "2025-12-01T20:24:38.620800", "MEAN_MOTION": 1.00272319, "ECCENTRICITY": 0.00023089, "INCLINATION": 0.0209, "RA_OF_ASC_NODE": 319.9176, "ARG_OF_PERICENTER": 338.5098, "MEAN_ANOMALY": 219.4399, "EPHEMERIS_TYPE": 0, "CLASSIFICATION_TYPE": "U", "NORAD_CAT_ID": 41836, "ELEMENT_SET_NO": 999, "REV_AT_EPOCH": 3323, "BSTAR": 0, "MEAN_MOTION_DOT": 0, "MEAN_MOTION_DDOT": 0}, "tle": {"line1": "1 41836U 16064A   25335.85044700  .00000000  00000+0  00000+0 0  9993", "line2": "2 41836   0.0209 319.9176 0002308 338.5098 219.4399  1.00272319 33233"}}, "geometry": {"type": "Point", "coordinates": [60.48932509440477, 0.04282103671463056]}}, {"type": "Feature", "properties": {"norad_id": 41866, "name": "GOES 16", "group": "weather", "lat": 0.03202597979958841, "lon": 175.01576538525546, "alt_km": 35784.12483655624, "timestamp": "2025-12-02T13:52:16.919156+00:00", "meta": {"OBJECT_NAME": "GOES 16", "OBJECT_ID": "2016-071A", "EPOCH": "2025-12-02T04:43:32.090016", "MEAN_MOTION": 1.00270609, "ECCENTRICITY": 0.00033651, "INCLINATION": 0.0554, "RA_OF_ASC_NODE": 108.4608, "ARG_OF_PERICENTER": 147.4278, "MEAN_ANOMALY": 141.6326, "EPHEMERIS_TYPE": 0, "CLASSIFICATION_TYPE": "U", "NORAD_CAT_ID": 41866, "ELEMENT_SET_NO": 999, "REV_AT_EPOCH": 3312, "BSTAR": 0, "MEAN_MOTION_DOT": -7e-07, "MEAN_MOTION_DDOT": 0}, "tle": {"line1": "1 41866U 16071A   25336.19689919 -.00000070  00000+0  00000+0 0  9997", "line2": "2 41866   0.0554 108.4608 0003365 147.4278 141.6326  1.00270609 33125"}}, "geometry": {"type": "Point", "coordinates": [175.01576538525546, 0.03202597979958841]}}, {"type": "Feature", "properties": {"norad_id": 41882, "name": "FENGYUN 4A", "group": "weather", "lat": -1.1224162117925323, "lon": 43.44508596684557, "alt_km": 35805.46420761132, "timestamp": "2025-12-02T13:52:16.919168+00:00", "meta": {"OBJECT_NAME": "FENGYUN 4A", "OBJECT_ID": "2016-077A", "EPOCH": "2025-12-02T07:31:31.000800", "MEAN_MOTION": 1.00278848, "ECCENTRICITY": 0.0005003, "INCLINATION": 1.8205, "RA_OF_ASC_NODE": 82.4911, "ARG_OF_PERICENTER": 141.2194, "MEAN_ANOMALY": 84.2874, "EPHEMERIS_TYPE": 0, "CLASSIFICATION_TYPE": "U", "NORAD_CAT_ID": 41882, "ELEMENT_SET_NO": 999, "REV_AT_EPOCH": 3295, "BSTAR": 0, "MEAN_MOTION_DOT": -3.36e-06, "MEAN_MOTION_DDOT": 0}, "tle": {"line1": "1 41882U 16077A   25336.31355325 -.00000336  00000+0  00000+0 0  9991", "line2": "2 41882   1.8205  82.4911 0005003 141.2194  84.2874  1.00278848 32956"}}, "geometry": {"type": "Point", "coordinates": [43.44508596684557, -1.1224162117925323]}}, {"type": "Feature", "properties": {"norad_id": 41884, "name": "CYGFM05", "group": "weather", "lat": -0.7203569950556941, "lon": -65.48730128957384, "alt_km": 425.04689288170266, "timestamp": "2025-12-02T13:52:16.919179+00:00", "meta": {"OBJECT_NAME": "CYGFM05", "OBJECT_ID": "2016-078A", "EPOCH": "2025-12-01T20:03:25.166880", "MEAN_MOTION": 15.47023859, "ECCENTRICITY": 0.00094077, "INCLINATION": 34.9578, "RA_OF_ASC_NODE": 118.3257, "ARG_OF_PERICENTER": 77.6657, "MEAN_ANOMALY": 282.5117, "EPHEMERIS_TYPE": 0, "CLASSIFICATION_TYPE": "U", "NORAD_CAT_ID": 41884, "ELEMENT_SET_NO": 999, "REV_AT_EPOCH": 49807, "BSTAR": 0.0004358761, "MEAN_MOTION_DOT": 0.00022753, "MEAN_MOTION_DDOT": 0}, "tle": {"line1": "1 41884U 16078A   25335.83570795  .00022753  00000+0  43588-3 0  9998", "line2": "2 41884  34.9578 118.3257 0009407  77.6657 282.5117 15.47023859498076"}}, "geometry": {"type": "Point", "coordinates": [-65.48730128957384, -0.7203569950556941]}}, {"type": "Feature", "properties": {"norad_id": 41885, "name": "CYGFM04", "group": "weather", "lat": -20.853308178993228, "lon": 55.47007293579562, "alt_km": 423.9625225009677, "timestamp": "2025-12-02T13:52:16.919189+00:00", "meta": {"OBJECT_NAME": "CYGFM04", "OBJECT_ID": "2016-078B", "EPOCH": "2025-12-01T17:56:12.663456", "MEAN_MOTION": 15.49568378, "ECCENTRICITY": 0.0008511, "INCLINATION": 34.9335, "RA_OF_ASC_NODE": 93.9902, "ARG_OF_PERICENTER": 107.3398, "MEAN_ANOMALY": 252.8256, "EPHEMERIS_TYPE": 0, "CLASSIFICATION_TYPE": "U", "NORAD_CAT_ID": 41885, "ELEMENT_SET_NO": 999, "REV_AT_EPOCH": 49823, "BSTAR": 0.0011321639, "MEAN_MOTION_DOT": 0.00065033, "MEAN_MOTION_DDOT": 0}, "tle": {"line1": "1 41885U 16078B   25335.74736879  .00065033  00000+0  11322-2 0  9994", "line2": "2 41885  34.9335  93.9902 0008511 107.3398 252.8256 15.49568378498235"}}, "geometry": {"type": "Point", "coordinates": [55.47007293579562, -20.853308178993228]}}, {"type": "Feature", "properties": {"norad_id": 41886, "name": "CYGFM02", "group": "weather", "lat": -33.59720617294312, "lon": 14.927964599646204, "alt_km": 422.4713261382667, "timestamp": "2025-12-02T13:52:16.919204+00:00", "meta": {"OBJECT_NAME": "CYGFM02", "OBJECT_ID": "2016-078C", "EPOCH": "2025-12-02T00:17:30.788160", "MEAN_MOTION": 15.5101423, "ECCENTRICITY": 0.00101286, "INCLINATION": 34.9428, "RA_OF_ASC_NODE": 90.7182, "ARG_OF_PERICENTER": 109.3865, "MEAN_ANOMALY": 250.7953, "EPHEMERIS_TYPE": 0, "CLASSIFICATION_TYPE": "U", "NORAD_CAT_ID": 41886, "ELEMENT_SET_NO": 999, "REV_AT_EPOCH": 49840, "BSTAR": 0.00045957168, "MEAN_MOTION_DOT": 0.0002765, "MEAN_MOTION_DDOT": 0}, "tle": {"line1": "1 41886U 16078C   25336.01216190  .00027650  00000+0  45957-3 0  9990", "line2": "2 41886  34.9428  90.7182 0010128 109.3865 250.7953 15.51014230498408"}}, "geometry": {"type": "Point", "coordinates": [14.927964599646204, -33.59720617294312]}}, {"type": "Feature", "properties": {"norad_id": 41887, "name": "CYGFM01", "group": "weather", "lat": -13.68982039618645, "lon": -43.678502588221185, "alt_km": 427.98794061657827, "timestamp": "2025-12-02T13:52:16.919215+00:00", "meta": {"OBJECT_NAME": "CYGFM01", "OBJECT_ID": "2016-078D", "EPOCH": "2025-12-02T02:09:23.270688", "MEAN_MOTION": 15.47596984, "ECCENTRICITY": 0.00090637, "INCLINATION": 34.9408, "RA_OF_ASC_NODE": 119.091, "ARG_OF_PERICENTER": 71.3523, "MEAN_ANOMALY": 288.8182, "EPHEMERIS_TYPE": 0, "CLASSIFICATION_TYPE": "U", "NORAD_CAT_ID": 41887, "ELEMENT_SET_NO": 999, "REV_AT_EPOCH": 49805, "BSTAR": 0.00045401769, "MEAN_MOTION_DOT": 0.00024183, "MEAN_MOTION_DDOT": 0}, "tle": {"line1": "1 41887U 16078D   25336.08985267  .00024183  00000+0  45402-3 0  9999", "line2": "2 41887  34.9408 119.0910 0009063  71.3523 288.8182 15.47596984498059"}}, "geometry": {"type": "Point", "coordinates": [-43.678502588221185, -13.68982039618645]}}, {"type": "Feature", "properties": {"norad_id": 41888, "name": "CYGFM08", "group": "weather", "lat": -16.19465961997466, "lon": -56.4120527509741, "alt_km": 423.07951515868626, "timestamp": "2025-12-02T13:52:16.919226+00:00", "meta": {"OBJECT_NAME": "CYGFM08", "OBJECT_ID": "2016-078E", "EPOCH": "2025-12-01T18:24:36.538848", "MEAN_MOTION": 15.48751854, "ECCENTRICITY": 0.00106397, "INCLINATION": 34.9442, "RA_OF_ASC_NODE": 104.3169, "ARG_OF_PERICENTER": 94.5442, "MEAN_ANOMALY": 265.6495, "EPHEMERIS_TYPE": 0, "CLASSIFICATION_TYPE": "U", "NORAD_CAT_ID": 41888, "ELEMENT_SET_NO": 999, "REV_AT_EPOCH": 49823, "BSTAR": 0.00042338756, "MEAN_MOTION_DOT": 0.00023493, "MEAN_MOTION_DDOT": 0}, "tle": {"line1": "1 41888U 16078E   25335.76708957  .00023493  00000+0  42339-3 0  9992", "line2": "2 41888  34.9442 104.3169 0010639  94.5442 265.6495 15.48751854498239"}}, "geometry": {"type": "Point", "coordinates": [-56.4120527509741, -16.19465961997466]}}, {"type": "Feature", "properties": {"norad_id": 41890, "name": "CYGFM07", "group": "weather", "lat": 2.451250383848954, "lon": -95.46750553092512, "alt_km": 413.6411106644737, "timestamp": "2025-12-02T13:52:16.919237+00:00", "meta": {"OBJECT_NAME": "CYGFM07", "OBJECT_ID": "2016-078G", "EPOCH": "2025-12-02T00:44:47.459904", "MEAN_MOTION": 15.49334806, "ECCENTRICITY": 0.00088463, "INCLINATION": 34.9467, "RA_OF_ASC_NODE": 91.629, "ARG_OF_PERICENTER": 116.2049, "MEAN_ANOMALY": 243.9583, "EPHEMERIS_TYPE": 0, "CLASSIFICATION_TYPE": "U", "NORAD_CAT_ID": 41890, "ELEMENT_SET_NO": 999, "REV_AT_EPOCH": 49829, "BSTAR": 0.00046561966, "MEAN_MOTION_DOT": 0.0002637, "MEAN_MOTION_DDOT": 0}, "tle": {"line1": "1 41890U 16078G   25336.03110486  .00026370  00000+0  46562-3 0  9999", "line2": "2 41890  34.9467  91.6290 0008846 116.2049 243.9583 15.49334806498292"}}, "geometry": {"type": "Point", "coordinates": [-95.46750553092512, 2.451250383848954]}}, {"type": "Feature", "properties": {"norad_id": 41891, "name": "CYGFM03", "group": "weather", "lat": 7.794112751675141, "lon": 101.26535226658261, "alt_km": 416.98398391568753, "timestamp": "2025-12-02T13:52:16.919248+00:00", "meta": {"OBJECT_NAME": "CYGFM03", "OBJECT_ID": "2016-078H", "EPOCH": "2025-12-01T17:42:27.482112", "MEAN_MOTION": 15.49224271, "ECCENTRICITY": 0.00082414, "INCLINATION": 34.9416, "RA_OF_ASC_NODE": 95.4619, "ARG_OF_PERICENTER": 98.9519, "MEAN_ANOMALY": 261.2136, "EPHEMERIS_TYPE": 0, "CLASSIFICATION_TYPE": "U", "NORAD_CAT_ID": 41891, "ELEMENT_SET_NO": 999, "REV_AT_EPOCH": 49822, "BSTAR": 0.00044220645, "MEAN_MOTION_DOT": 0.00024934, "MEAN_MOTION_DDOT": 0}, "tle": {"line1": "1 41891U 16078H   25335.73781808  .00024934  00000+0  44221-3 0  9992", "line2": "2 41891  34.9416  95.4619 0008241  98.9519 261.2136 15.49224271498225"}}, "geometry": {"type": "Point", "coordinates": [101.26535226658261, 7.794112751675141]}}]}